2026-027A               
1 67746U 26027A   26061.91223488  .00010792  00000+0  54007-3 0  9996
2 67746  97.4893 190.9982 0009758 218.9201 141.1331 15.17548909  2838
2026-027B               
1 67747U 26027B   26061.91099339  .00010738  00000+0  53582-3 0  9990
2 67747  97.4888 190.9984 0009878 221.4388 138.6098 15.17649356  2832
2026-027C               
1 67748U 26027C   26061.90969886  .00007493  00000+0  37448-3 0  9990
2 67748  97.4900 191.0030 0010205 224.0632 135.9789 15.17702316  2832
2026-027D               
1 67749U 26027D   26061.90724049  .00012786  00000+0  63111-3 0  9998
2 67749  97.4895 191.0050 0009933 229.2407 130.7966 15.17985254  2789
2026-027E               
1 67750U 26027E   26061.90726502  .00010837  00000+0  53609-3 0  9992
2 67750  97.4906 191.0079 0009126 230.2521 129.7909 15.17955837  2833
2026-027F               
1 67751U 26027F   26061.97157984  .00017883  00000+0  87518-3 0  9996
2 67751  97.4906 191.0758 0010321 230.3063 129.7262 15.18203395  2848
2026-027G               
1 67752U 26027G   26061.97206656  .00012085  00000+0  59550-3 0  9992
2 67752  97.4901 191.0733 0009447 232.3342 127.7036 15.18060830  2848
2026-027H               
1 67753U 26027H   26061.95354183  .00423504  23766-5  65916-3 0  9995
2 67753  97.5127 192.4489 0234873 269.6433  87.7915 15.69289484  2924
2026-027J               
1 67754U 26027J   26061.91516880  .01436619  24404-5  12710-2 0  9991
2 67754  97.5073 192.6508 0169634 268.7619  89.4215 15.89781843  2871
2026-028A               
1 67756U 26028A   26061.31263921 -.00000069  00000+0  00000+0 0  9995
2 67756   0.4879 289.4342 0042011 229.4346 201.2678  0.99524419   189
KUIPER-00159            
1 67764U 26030A   26061.92901978  .00034848  00000+0  10039-2 0  9992
2 67764  51.8838 251.7624 0004350  27.1298 332.9915 15.35407178  4055
KUIPER-00160            
1 67765U 26030B   26061.92997346  .00026374  00000+0  76555-3 0  9998
2 67765  51.8801 251.7612 0004357  38.9112 321.2187 15.35316036  4059
