CCSDS_OMM_VERS = 2.0
CREATION_DATE  = 
ORIGINATOR     = 

OBJECT_NAME    = 2026-027A
OBJECT_ID      = 2026-027A
CENTER_NAME    = EARTH
REF_FRAME      = TEME
TIME_SYSTEM    = UTC
MEAN_ELEMENT_THEORY = SGP/SGP4

EPOCH          = 2026-03-02T21:53:37.093632
MEAN_MOTION    = 15.17548909
ECCENTRICITY   = .00097589
INCLINATION    = 97.4893
RA_OF_ASC_NODE = 190.9982
ARG_OF_PERICENTER = 218.9201
MEAN_ANOMALY   = 141.1331

EPHEMERIS_TYPE = 0
CLASSIFICATION_TYPE = U
NORAD_CAT_ID   = 67746
ELEMENT_SET_NO = 999
REV_AT_EPOCH   = 283
BSTAR          = .54006653E-3
MEAN_MOTION_DOT = .10792E-3
MEAN_MOTION_DDOT = 0

CCSDS_OMM_VERS = 2.0
CREATION_DATE  = 
ORIGINATOR     = 

OBJECT_NAME    = 2026-027B
OBJECT_ID      = 2026-027B
CENTER_NAME    = EARTH
REF_FRAME      = TEME
TIME_SYSTEM    = UTC
MEAN_ELEMENT_THEORY = SGP/SGP4

EPOCH          = 2026-03-02T21:51:49.828896
MEAN_MOTION    = 15.17649356
ECCENTRICITY   = .00098788
INCLINATION    = 97.4888
RA_OF_ASC_NODE = 190.9984
ARG_OF_PERICENTER = 221.4388
MEAN_ANOMALY   = 138.6098

EPHEMERIS_TYPE = 0
CLASSIFICATION_TYPE = U
NORAD_CAT_ID   = 67747
ELEMENT_SET_NO = 999
REV_AT_EPOCH   = 283
BSTAR          = .53581638E-3
MEAN_MOTION_DOT = .10738E-3
MEAN_MOTION_DDOT = 0

CCSDS_OMM_VERS = 2.0
CREATION_DATE  = 
ORIGINATOR     = 

OBJECT_NAME    = 2026-027C
OBJECT_ID      = 2026-027C
CENTER_NAME    = EARTH
REF_FRAME      = TEME
TIME_SYSTEM    = UTC
MEAN_ELEMENT_THEORY = SGP/SGP4

EPOCH          = 2026-03-02T21:49:57.981504
MEAN_MOTION    = 15.17702316
ECCENTRICITY   = .00102059
INCLINATION    = 97.4900
RA_OF_ASC_NODE = 191.0030
ARG_OF_PERICENTER = 224.0632
MEAN_ANOMALY   = 135.9789

EPHEMERIS_TYPE = 0
CLASSIFICATION_TYPE = U
NORAD_CAT_ID   = 67748
ELEMENT_SET_NO = 999
REV_AT_EPOCH   = 283
BSTAR          = .37447935E-3
MEAN_MOTION_DOT = .7493E-4
MEAN_MOTION_DDOT = 0

CCSDS_OMM_VERS = 2.0
CREATION_DATE  = 
ORIGINATOR     = 

OBJECT_NAME    = 2026-027D
OBJECT_ID      = 2026-027D
CENTER_NAME    = EARTH
REF_FRAME      = TEME
TIME_SYSTEM    = UTC
MEAN_ELEMENT_THEORY = SGP/SGP4

EPOCH          = 2026-03-02T21:46:25.578336
MEAN_MOTION    = 15.17985254
ECCENTRICITY   = .00099333
INCLINATION    = 97.4895
RA_OF_ASC_NODE = 191.0050
ARG_OF_PERICENTER = 229.2407
MEAN_ANOMALY   = 130.7966

EPHEMERIS_TYPE = 0
CLASSIFICATION_TYPE = U
NORAD_CAT_ID   = 67749
ELEMENT_SET_NO = 999
REV_AT_EPOCH   = 278
BSTAR          = .63111057E-3
MEAN_MOTION_DOT = .12786E-3
MEAN_MOTION_DDOT = 0

CCSDS_OMM_VERS = 2.0
CREATION_DATE  = 
ORIGINATOR     = 

OBJECT_NAME    = 2026-027E
OBJECT_ID      = 2026-027E
CENTER_NAME    = EARTH
REF_FRAME      = TEME
TIME_SYSTEM    = UTC
MEAN_ELEMENT_THEORY = SGP/SGP4

EPOCH          = 2026-03-02T21:46:27.697728
MEAN_MOTION    = 15.17955837
ECCENTRICITY   = .00091267
INCLINATION    = 97.4906
RA_OF_ASC_NODE = 191.0079
ARG_OF_PERICENTER = 230.2521
MEAN_ANOMALY   = 129.7909

EPHEMERIS_TYPE = 0
CLASSIFICATION_TYPE = U
NORAD_CAT_ID   = 67750
ELEMENT_SET_NO = 999
REV_AT_EPOCH   = 283
BSTAR          = .53608824E-3
MEAN_MOTION_DOT = .10837E-3
MEAN_MOTION_DDOT = 0

CCSDS_OMM_VERS = 2.0
CREATION_DATE  = 
ORIGINATOR     = 

OBJECT_NAME    = 2026-027F
OBJECT_ID      = 2026-027F
CENTER_NAME    = EARTH
REF_FRAME      = TEME
TIME_SYSTEM    = UTC
MEAN_ELEMENT_THEORY = SGP/SGP4

EPOCH          = 2026-03-02T23:19:04.498176
MEAN_MOTION    = 15.18203395
ECCENTRICITY   = .00103219
INCLINATION    = 97.4906
RA_OF_ASC_NODE = 191.0758
ARG_OF_PERICENTER = 230.3063
MEAN_ANOMALY   = 129.7262

EPHEMERIS_TYPE = 0
CLASSIFICATION_TYPE = U
NORAD_CAT_ID   = 67751
ELEMENT_SET_NO = 999
REV_AT_EPOCH   = 284
BSTAR          = .87517572E-3
MEAN_MOTION_DOT = .17883E-3
MEAN_MOTION_DDOT = 0

CCSDS_OMM_VERS = 2.0
CREATION_DATE  = 
ORIGINATOR     = 

OBJECT_NAME    = 2026-027G
OBJECT_ID      = 2026-027G
CENTER_NAME    = EARTH
REF_FRAME      = TEME
TIME_SYSTEM    = UTC
MEAN_ELEMENT_THEORY = SGP/SGP4

EPOCH          = 2026-03-02T23:19:46.550784
MEAN_MOTION    = 15.18060830
ECCENTRICITY   = .00094477
INCLINATION    = 97.4901
RA_OF_ASC_NODE = 191.0733
ARG_OF_PERICENTER = 232.3342
MEAN_ANOMALY   = 127.7036

EPHEMERIS_TYPE = 0
CLASSIFICATION_TYPE = U
NORAD_CAT_ID   = 67752
ELEMENT_SET_NO = 999
REV_AT_EPOCH   = 284
BSTAR          = .59550292E-3
MEAN_MOTION_DOT = .12085E-3
MEAN_MOTION_DDOT = 0

CCSDS_OMM_VERS = 2.0
CREATION_DATE  = 
ORIGINATOR     = 

OBJECT_NAME    = 2026-027H
OBJECT_ID      = 2026-027H
CENTER_NAME    = EARTH
REF_FRAME      = TEME
TIME_SYSTEM    = UTC
MEAN_ELEMENT_THEORY = SGP/SGP4

EPOCH          = 2026-03-02T22:53:06.014112
MEAN_MOTION    = 15.69289484
ECCENTRICITY   = .02348738
INCLINATION    = 97.5127
RA_OF_ASC_NODE = 192.4489
ARG_OF_PERICENTER = 269.6433
MEAN_ANOMALY   = 87.7915

EPHEMERIS_TYPE = 0
CLASSIFICATION_TYPE = U
NORAD_CAT_ID   = 67753
ELEMENT_SET_NO = 999
REV_AT_EPOCH   = 292
BSTAR          = .65915741E-3
MEAN_MOTION_DOT = .423504E-2
MEAN_MOTION_DDOT = .2376648E-5

CCSDS_OMM_VERS = 2.0
CREATION_DATE  = 
ORIGINATOR     = 

OBJECT_NAME    = 2026-027J
OBJECT_ID      = 2026-027J
CENTER_NAME    = EARTH
REF_FRAME      = TEME
TIME_SYSTEM    = UTC
MEAN_ELEMENT_THEORY = SGP/SGP4

EPOCH          = 2026-03-02T21:57:50.584320
MEAN_MOTION    = 15.89781843
ECCENTRICITY   = .01696349
INCLINATION    = 97.5073
RA_OF_ASC_NODE = 192.6508
ARG_OF_PERICENTER = 268.7619
MEAN_ANOMALY   = 89.4215

EPHEMERIS_TYPE = 0
CLASSIFICATION_TYPE = U
NORAD_CAT_ID   = 67754
ELEMENT_SET_NO = 999
REV_AT_EPOCH   = 287
BSTAR          = .12709645E-2
MEAN_MOTION_DOT = .1436619E-1
MEAN_MOTION_DDOT = .2440428E-5

CCSDS_OMM_VERS = 2.0
CREATION_DATE  = 
ORIGINATOR     = 

OBJECT_NAME    = 2026-028A
OBJECT_ID      = 2026-028A
CENTER_NAME    = EARTH
REF_FRAME      = TEME
TIME_SYSTEM    = UTC
MEAN_ELEMENT_THEORY = SGP/SGP4

EPOCH          = 2026-03-02T07:30:12.027744
MEAN_MOTION    = 0.99524419
ECCENTRICITY   = .00420111
INCLINATION    = 0.4879
RA_OF_ASC_NODE = 289.4342
ARG_OF_PERICENTER = 229.4346
MEAN_ANOMALY   = 201.2678

EPHEMERIS_TYPE = 0
CLASSIFICATION_TYPE = U
NORAD_CAT_ID   = 67756
ELEMENT_SET_NO = 999
REV_AT_EPOCH   = 18
BSTAR          = 0
MEAN_MOTION_DOT = -.69E-6
MEAN_MOTION_DDOT = 0

CCSDS_OMM_VERS = 2.0
CREATION_DATE  = 
ORIGINATOR     = 

OBJECT_NAME    = KUIPER-00159
OBJECT_ID      = 2026-030A
CENTER_NAME    = EARTH
REF_FRAME      = TEME
TIME_SYSTEM    = UTC
MEAN_ELEMENT_THEORY = SGP/SGP4

EPOCH          = 2026-03-02T22:17:47.308992
MEAN_MOTION    = 15.35407178
ECCENTRICITY   = .000435
INCLINATION    = 51.8838
RA_OF_ASC_NODE = 251.7624
ARG_OF_PERICENTER = 27.1298
MEAN_ANOMALY   = 332.9915

EPHEMERIS_TYPE = 0
CLASSIFICATION_TYPE = U
NORAD_CAT_ID   = 67764
ELEMENT_SET_NO = 999
REV_AT_EPOCH   = 405
BSTAR          = .10039442E-2
MEAN_MOTION_DOT = .34848E-3
MEAN_MOTION_DDOT = 0

CCSDS_OMM_VERS = 2.0
CREATION_DATE  = 
ORIGINATOR     = 

OBJECT_NAME    = KUIPER-00160
OBJECT_ID      = 2026-030B
CENTER_NAME    = EARTH
REF_FRAME      = TEME
TIME_SYSTEM    = UTC
MEAN_ELEMENT_THEORY = SGP/SGP4

EPOCH          = 2026-03-02T22:19:09.706944
MEAN_MOTION    = 15.35316036
ECCENTRICITY   = .00043571
INCLINATION    = 51.8801
RA_OF_ASC_NODE = 251.7612
ARG_OF_PERICENTER = 38.9112
MEAN_ANOMALY   = 321.2187

EPHEMERIS_TYPE = 0
CLASSIFICATION_TYPE = U
NORAD_CAT_ID   = 67765
ELEMENT_SET_NO = 999
REV_AT_EPOCH   = 405
BSTAR          = .76555034E-3
MEAN_MOTION_DOT = .26374E-3
MEAN_MOTION_DDOT = 0

